#cP2022  3 24  0  0  0.00000000     576 d+D   IGb14 EXT AIUB
## 2202 345600.00000000   300.00000000 59662 0.0000000000000
+   76   G01G02G03G04G05G06G07G08G09G10G11G12G13G14G15G16G17
+        G18G19G20G21G22G23G24G25G26G27G28G29G30G31G32R01R02
+        R03R04R05R07R08R09R12R13R14R15R17R18R19R20R21R22R24
+        E01E02E03E04E05E07E08E10E11E12E13E14E15E18E19E21E24
+        E25E26E27E30E31E33E34E36  0  0  0  0  0  0  0  0  0
++         6  7  6  8  7  6  7  6  5  6  8  7  7  7  7  7  8
++         8  7  7  8  7  7  6  6  6  6  7  7  6  7  6  8  7
++         7  7  7  7  7  7  7  8  7  7  8  7  8  8  8  8  8
++         5  6  6  6  7  5  5  7  6  6  6  6  6  6  7  6  6
++         6  6  6  6  6  6  6  6  0  0  0  0  0  0  0  0  0
%c M  cc GPS ccc cccc cccc cccc cccc ccccc ccccc ccccc ccccc
%c cc cc ccc ccc cccc cccc cccc cccc ccccc ccccc ccccc ccccc
%f  1.2500000  1.025000000  0.00000000000  0.000000000000000
%f  0.0000000  0.000000000  0.00000000000  0.000000000000000
%i    0    0    0    0      0      0      0      0         0
%i    0    0    0    0      0      0      0      0         0
/* Center for Orbit Determination in Europe (CODE)          
/* Ultra-rapid GRE orbits starting year-day 22083 00 hour   
/* Observed/predicted: 24/24 hours (data used up to 083X)   
/* PCV:IGS14      OL/AL:FES2014b NONE     YN ORB:CoN CLK:BRD
*  2022  3 24  1  5  0.00000000
PG01  18927.503560  13795.414644 -13144.630315    401.713783
PG02   2928.877378 -15141.518100  22285.764111   -652.575798
PG03  12961.449426  21173.272349   9493.301795   -176.780909
PG04   9979.799185  11495.253248  21769.496623   -181.458051
PG05  -4621.164053 -25470.121025   5417.203828    -75.751648
PG06  18930.249583  -7121.154000  17325.683234    241.648659
PG07  26192.356277   5592.939341  -1237.007511    317.478219
PG08   1040.137549  18405.959836 -19019.899565    -61.042317
PG09  18080.598241    617.674870  19388.712855   -348.072922
PG10 -13580.112168   6366.109679 -21756.862421   -356.217857
PG11   4059.301270 -14627.090396  21792.405144    -56.812170
PG12  -9674.248716 -23902.643103   6368.069789   -189.474578
PG13   8531.507511 -20126.773308 -15120.326647    281.952936
PG14  14516.310000  -5250.358915 -21616.004157    -96.670149
PG15  -4253.472019 -18245.636009 -19121.816483    -74.464476
PG16  -1316.492732  24653.035684   8874.163490   -484.067588
PG17  21695.395888 -13009.124013  -7750.753469    591.188620
PG18 -25962.248900  -5599.508227  -1755.375868    212.796396
PG19  20736.904231 -16393.776821  -1316.337256    134.992364
PG20    770.759101 -22551.972314  14203.377942    516.168330
PG21  10175.735704  15052.655040 -18934.185682    159.730580
PG22 -18613.869986  18706.429364   2317.370983    232.185476
PG23 -16433.934790  -5897.255684 -20052.589281     -9.320075
PG24 -15834.075642 -14598.270112 -16100.203050    265.067758
PG25 -15966.777165 -13630.926427  16146.489816    302.423186
PG26  -7999.497233  17406.822497  18183.660045    193.172952
PG27  -9776.500465  21695.431944 -11571.411830    163.557529
PG28  10560.892200 -14530.902109 -19126.596433    374.674553
PG29 -16688.068935  -3276.676185  20368.413959   -494.885321
PG30  24817.867302   -877.020701  -9688.590142   -520.283443
PG31 -17384.770158   8660.503230  18192.239022   -170.278960
PG32 -20324.535240  15963.206693  -5531.751556    -90.758220
PR01  -2619.789232 -19272.069220 -16490.359075      7.343479
PR02 -11148.018929   -581.862395 -22883.982776    513.396759
PR03 -12533.197738  16817.207650 -14429.008280     53.646043
PR04  -6944.466457  24466.134801   1934.876932    133.322170
PR05   2415.882735  18637.447225  17251.319391     89.913549
PR07  12494.573076 -17387.393949  13944.525404     33.010937
PR08   6877.195886 -24499.206524  -1901.810447    -64.203250
PR09  19081.865967  10576.373355 -13264.410166     45.952897
PR12 -15678.066953 -19745.206030  -3928.793580     17.565808
PR13 -19068.811513 -11595.522194  12335.961849    -19.863514
PR14 -10968.368587   4295.535917  22629.849810     75.721980
PR15   3144.956011  16829.505244  18922.164033     97.335183
PR17 -22796.984412   8473.104943  -7735.753008    511.952369
PR18  -9789.682285  11432.576979 -20561.458335    111.266553
PR19   6929.511766   9034.565690 -22826.228042   -182.688311
PR20  23275.813561    576.220644 -10469.966282    -67.281404
PR21  22101.880624  -8824.322972   9157.326345   -287.697800
PR22   9115.631706 -11349.382576  20962.282191   -172.489473
PR24 -23568.471394     92.409747   9780.107154     85.790393
PE01 -19041.734259  -7246.138323  21472.228297   -602.610928
PE02  19017.742284   7035.973440 -21562.696211    288.211873
PE03  21105.926964  -4627.476847  20228.318346   -540.522282
PE04 -20063.830982  21131.202084  -5192.077394   -991.068063
PE05   9756.138143  14903.824954  23645.964813   -197.542298
PE07   7116.255782 -25485.954375 -13250.148506   -651.367118
PE08  19828.232442 -21420.803898   4889.220030   -500.238575
PE10 -12069.390110  13854.324666 -23211.234878   -502.308388
PE11   -135.161541  16186.703398 -24789.418838   4151.852637
PE12 -21497.571716   9499.549624 -17978.419048   4698.505981
PE13    931.454443 -16039.072404  24865.185223    427.512270
PE14  23431.973193  -6393.735787 -13608.451078  -1788.848956
PE15  21619.528111  -9418.034847  17905.562335    755.980663
PE18 -21860.502712  20297.630713   -569.081316  -1648.645394
PE19 -20222.444898   2184.838920 -21493.838053  -1820.166634
PE21 -16159.071322 -23498.889529   7939.703534   -724.289320
PE24   2721.616949  26916.443850  11961.208016   -521.900433
PE25  16048.963546  23640.457653  -7707.889223   -567.863095
PE26 -20949.965078 -12999.187773  16380.325209   -947.397150
PE27  -3801.405480 -27256.443112 -10922.935366   -260.000693
PE30  11452.662846 -13943.874348 -23482.281883   -372.980828
PE31 -10701.099889  14932.956349  23209.173977   -493.981143
PE33 -29462.768989  -2733.837305   -409.896531   -458.284460
PE34  29484.231922   2551.077077    615.707636   -508.339414
PE36  20189.661349  13194.374145 -17165.769934   -349.559346
EOF
